<?xml version="1.0" encoding="UTF-8"?>
<gpx creator="StravaGPX" version="1.1" xmlns="http://www.topografix.com/GPX/1/1" xmlns:xsi="http://www.w3.org/2001/XMLSchema-instance" xsi:schemaLocation="http://www.topografix.com/GPX/1/1 http://www.topografix.com/GPX/1/1/gpx.xsd">
 <metadata>
  <name>Amager Runners 5k</name>
  <author>
   <name>Malthe Poulsen</name>
   <link href="https://www.strava.com/athletes/19956611"/>
  </author>
  <copyright author="OpenStreetMap contributors">
   <year>2020</year>
   <license>https://www.openstreetmap.org/copyright</license>
  </copyright>
  <link href="https://www.strava.com/routes/3482092479019289984"/>
 </metadata>
 <trk>
  <name>Amager Runners 5k</name>
  <link href="https://www.strava.com/routes/3482092479019289984"/>
  <type>running</type>
  <trkseg>
   <trkpt lat="55.65155000000001" lon="12.64652">
    <ele>0.9700000000000001</ele>
   </trkpt>
   <trkpt lat="55.65084" lon="12.646440000000002">
    <ele>0.9500000000000001</ele>
   </trkpt>
   <trkpt lat="55.65052000000001" lon="12.646440000000002">
    <ele>0.9100000000000001</ele>
   </trkpt>
   <trkpt lat="55.6503" lon="12.64648">
    <ele>0.9100000000000001</ele>
   </trkpt>
   <trkpt lat="55.6501" lon="12.64652">
    <ele>0.8500000000000001</ele>
   </trkpt>
   <trkpt lat="55.649620000000006" lon="12.646650000000001">
    <ele>0.8200000000000001</ele>
   </trkpt>
   <trkpt lat="55.64896" lon="12.64686">
    <ele>0.8200000000000001</ele>
   </trkpt>
   <trkpt lat="55.64889" lon="12.64685">
    <ele>0.8200000000000001</ele>
   </trkpt>
   <trkpt lat="55.64887" lon="12.64747">
    <ele>-1.0</ele>
   </trkpt>
   <trkpt lat="55.649350000000005" lon="12.647300000000001">
    <ele>1.2200000000000002</ele>
   </trkpt>
   <trkpt lat="55.649710000000006" lon="12.64719">
    <ele>1.24</ele>
   </trkpt>
   <trkpt lat="55.65001" lon="12.647120000000001">
    <ele>1.2300000000000002</ele>
   </trkpt>
   <trkpt lat="55.650330000000004" lon="12.647070000000001">
    <ele>1.26</ele>
   </trkpt>
   <trkpt lat="55.65061000000001" lon="12.64703">
    <ele>1.27</ele>
   </trkpt>
   <trkpt lat="55.651340000000005" lon="12.647060000000002">
    <ele>1.12</ele>
   </trkpt>
   <trkpt lat="55.651720000000005" lon="12.647150000000002">
    <ele>1.1900000000000002</ele>
   </trkpt>
   <trkpt lat="55.65213000000001" lon="12.647310000000001">
    <ele>1.1300000000000001</ele>
   </trkpt>
   <trkpt lat="55.65245" lon="12.647480000000002">
    <ele>1.12</ele>
   </trkpt>
   <trkpt lat="55.652960000302585" lon="12.647814995535494">
    <ele>1.01</ele>
   </trkpt>
   <trkpt lat="55.653470000000006" lon="12.648150000000001">
    <ele>0.9500000000000001</ele>
   </trkpt>
   <trkpt lat="55.65413" lon="12.64868">
    <ele>0.8600000000000001</ele>
   </trkpt>
   <trkpt lat="55.65444" lon="12.64891">
    <ele>0.84</ele>
   </trkpt>
   <trkpt lat="55.654450000000004" lon="12.64886">
    <ele>0.84</ele>
   </trkpt>
   <trkpt lat="55.65453" lon="12.64892">
    <ele>0.79</ele>
   </trkpt>
   <trkpt lat="55.654650000000004" lon="12.648430000000001">
    <ele>0.46</ele>
   </trkpt>
   <trkpt lat="55.654830000000004" lon="12.648570000000001">
    <ele>0.34</ele>
   </trkpt>
   <trkpt lat="55.654920000000004" lon="12.64811">
    <ele>0.36000000000000004</ele>
   </trkpt>
   <trkpt lat="55.654970000000006" lon="12.64755">
    <ele>0.31</ele>
   </trkpt>
   <trkpt lat="55.655150000000006" lon="12.64723">
    <ele>0.30000000000000004</ele>
   </trkpt>
   <trkpt lat="55.65520000000001" lon="12.646970000000001">
    <ele>0.39</ele>
   </trkpt>
   <trkpt lat="55.65527" lon="12.646410000000001">
    <ele>0.44</ele>
   </trkpt>
   <trkpt lat="55.655330000000006" lon="12.64634">
    <ele>0.46</ele>
   </trkpt>
   <trkpt lat="55.65552" lon="12.646270000000001">
    <ele>0.46</ele>
   </trkpt>
   <trkpt lat="55.65560000000001" lon="12.646180000000001">
    <ele>0.46</ele>
   </trkpt>
   <trkpt lat="55.65567000000001" lon="12.646040000000001">
    <ele>0.52</ele>
   </trkpt>
   <trkpt lat="55.65578000000001" lon="12.645710000000001">
    <ele>0.52</ele>
   </trkpt>
   <trkpt lat="55.655860000000004" lon="12.645560000000001">
    <ele>0.5700000000000001</ele>
   </trkpt>
   <trkpt lat="55.65617" lon="12.645420000000001">
    <ele>0.45</ele>
   </trkpt>
   <trkpt lat="55.656400000000005" lon="12.64516">
    <ele>0.45</ele>
   </trkpt>
   <trkpt lat="55.65644" lon="12.645140000000001">
    <ele>0.45</ele>
   </trkpt>
   <trkpt lat="55.65659" lon="12.64516">
    <ele>0.45</ele>
   </trkpt>
   <trkpt lat="55.65664" lon="12.645150000000001">
    <ele>0.45</ele>
   </trkpt>
   <trkpt lat="55.65682" lon="12.644960000000001">
    <ele>0.48000000000000004</ele>
   </trkpt>
   <trkpt lat="55.65697" lon="12.644720000000001">
    <ele>0.42</ele>
   </trkpt>
   <trkpt lat="55.657070000000004" lon="12.644380000000002">
    <ele>0.43000000000000005</ele>
   </trkpt>
   <trkpt lat="55.65715" lon="12.64413">
    <ele>0.46</ele>
   </trkpt>
   <trkpt lat="55.657210000000006" lon="12.644010000000002">
    <ele>0.46</ele>
   </trkpt>
   <trkpt lat="55.657270000000004" lon="12.643960000000002">
    <ele>0.46</ele>
   </trkpt>
   <trkpt lat="55.657450000000004" lon="12.643880000000001">
    <ele>0.44</ele>
   </trkpt>
   <trkpt lat="55.657500000000006" lon="12.643830000000001">
    <ele>0.44</ele>
   </trkpt>
   <trkpt lat="55.65753" lon="12.64376">
    <ele>0.44</ele>
   </trkpt>
   <trkpt lat="55.6576" lon="12.643210000000002">
    <ele>0.56</ele>
   </trkpt>
   <trkpt lat="55.657650000000004" lon="12.6431">
    <ele>0.56</ele>
   </trkpt>
   <trkpt lat="55.65771" lon="12.643040000000001">
    <ele>0.54</ele>
   </trkpt>
   <trkpt lat="55.65776" lon="12.643">
    <ele>0.54</ele>
   </trkpt>
   <trkpt lat="55.65786000000001" lon="12.642970000000002">
    <ele>0.6000000000000001</ele>
   </trkpt>
   <trkpt lat="55.65791" lon="12.64292">
    <ele>0.6600000000000001</ele>
   </trkpt>
   <trkpt lat="55.65793000000001" lon="12.642850000000001">
    <ele>0.75</ele>
   </trkpt>
   <trkpt lat="55.65796" lon="12.64245">
    <ele>1.42</ele>
   </trkpt>
   <trkpt lat="55.658030000000004" lon="12.642320000000002">
    <ele>1.6900000000000002</ele>
   </trkpt>
   <trkpt lat="55.658100000000005" lon="12.642270000000002">
    <ele>1.9100000000000001</ele>
   </trkpt>
   <trkpt lat="55.65851000000001" lon="12.64215">
    <ele>1.04</ele>
   </trkpt>
   <trkpt lat="55.658750000000005" lon="12.642180000000002">
    <ele>0.9</ele>
   </trkpt>
   <trkpt lat="55.65883" lon="12.642230000000001">
    <ele>0.9</ele>
   </trkpt>
   <trkpt lat="55.658910000000006" lon="12.64225">
    <ele>0.89</ele>
   </trkpt>
   <trkpt lat="55.65903" lon="12.64221">
    <ele>0.89</ele>
   </trkpt>
   <trkpt lat="55.65908" lon="12.642140000000001">
    <ele>0.89</ele>
   </trkpt>
   <trkpt lat="55.659220000000005" lon="12.641420000000002">
    <ele>0.8500000000000001</ele>
   </trkpt>
   <trkpt lat="55.65927000000001" lon="12.64137">
    <ele>0.8500000000000001</ele>
   </trkpt>
   <trkpt lat="55.659380000000006" lon="12.641350000000001">
    <ele>0.8500000000000001</ele>
   </trkpt>
   <trkpt lat="55.659420000000004" lon="12.64132">
    <ele>0.78</ele>
   </trkpt>
   <trkpt lat="55.65946" lon="12.641240000000002">
    <ele>0.78</ele>
   </trkpt>
   <trkpt lat="55.659490000000005" lon="12.641140000000002">
    <ele>0.78</ele>
   </trkpt>
   <trkpt lat="55.65955" lon="12.640670000000002">
    <ele>0.9400000000000001</ele>
   </trkpt>
   <trkpt lat="55.659580000000005" lon="12.640550000000001">
    <ele>0.9400000000000001</ele>
   </trkpt>
   <trkpt lat="55.65963000000001" lon="12.640460000000001">
    <ele>0.9600000000000001</ele>
   </trkpt>
   <trkpt lat="55.65970000000001" lon="12.640410000000001">
    <ele>0.9600000000000001</ele>
   </trkpt>
   <trkpt lat="55.65995" lon="12.640410000000001">
    <ele>0.9400000000000001</ele>
   </trkpt>
   <trkpt lat="55.66002" lon="12.64037">
    <ele>0.9400000000000001</ele>
   </trkpt>
   <trkpt lat="55.66008000000001" lon="12.64029">
    <ele>0.9400000000000001</ele>
   </trkpt>
   <trkpt lat="55.66017000000001" lon="12.63991">
    <ele>1.01</ele>
   </trkpt>
   <trkpt lat="55.660210000000006" lon="12.63981">
    <ele>1.01</ele>
   </trkpt>
   <trkpt lat="55.660320000000006" lon="12.63972">
    <ele>1.01</ele>
   </trkpt>
   <trkpt lat="55.660810000000005" lon="12.639710000000001">
    <ele>0.99</ele>
   </trkpt>
   <trkpt lat="55.66095000000001" lon="12.63967">
    <ele>0.99</ele>
   </trkpt>
   <trkpt lat="55.66109" lon="12.63957">
    <ele>0.99</ele>
   </trkpt>
   <trkpt lat="55.66140000000001" lon="12.6392">
    <ele>1.04</ele>
   </trkpt>
   <trkpt lat="55.66158000000001" lon="12.639040000000001">
    <ele>1.1</ele>
   </trkpt>
   <trkpt lat="55.66178000000001" lon="12.63893">
    <ele>1.11</ele>
   </trkpt>
   <trkpt lat="55.661860000000004" lon="12.638910000000001">
    <ele>1.11</ele>
   </trkpt>
   <trkpt lat="55.66205000000001" lon="12.638940000000002">
    <ele>1.1</ele>
   </trkpt>
   <trkpt lat="55.662110000000006" lon="12.63893">
    <ele>1.1</ele>
   </trkpt>
   <trkpt lat="55.66232" lon="12.638710000000001">
    <ele>1.1</ele>
   </trkpt>
   <trkpt lat="55.66257" lon="12.63864">
    <ele>1.07</ele>
   </trkpt>
   <trkpt lat="55.66263000000001" lon="12.638580000000001">
    <ele>1.07</ele>
   </trkpt>
   <trkpt lat="55.662690000000005" lon="12.638480000000001">
    <ele>1.2200000000000002</ele>
   </trkpt>
   <trkpt lat="55.66275" lon="12.63836">
    <ele>1.2200000000000002</ele>
   </trkpt>
   <trkpt lat="55.66282" lon="12.638160000000001">
    <ele>1.2200000000000002</ele>
   </trkpt>
   <trkpt lat="55.66286" lon="12.63812">
    <ele>1.2200000000000002</ele>
   </trkpt>
   <trkpt lat="55.66286" lon="12.637640000000001">
    <ele>1.33</ele>
   </trkpt>
   <trkpt lat="55.66283000000001" lon="12.63761">
    <ele>1.33</ele>
   </trkpt>
   <trkpt lat="55.66281000000001" lon="12.63752">
    <ele>1.33</ele>
   </trkpt>
   <trkpt lat="55.66284" lon="12.637400000000001">
    <ele>1.4700000000000002</ele>
   </trkpt>
   <trkpt lat="55.66275" lon="12.637020000000001">
    <ele>1.6</ele>
   </trkpt>
   <trkpt lat="55.662640003667484" lon="12.6360699973232">
    <ele>2.6300000000000003</ele>
   </trkpt>
   <trkpt lat="55.662530000000004" lon="12.63512">
    <ele>1.42</ele>
   </trkpt>
   <trkpt lat="55.662530000000004" lon="12.635110000000001">
    <ele>1.41</ele>
   </trkpt>
   <trkpt lat="55.66242000338227" lon="12.634194997256264">
    <ele>1.18</ele>
   </trkpt>
   <trkpt lat="55.662310000000005" lon="12.633280000000001">
    <ele>1.16</ele>
   </trkpt>
   <trkpt lat="55.662310000000005" lon="12.633090000000001">
    <ele>1.16</ele>
   </trkpt>
   <trkpt lat="55.66223000000001" lon="12.632510000000002">
    <ele>1.4000000000000001</ele>
   </trkpt>
   <trkpt lat="55.66221" lon="12.632150000000001">
    <ele>1.77</ele>
   </trkpt>
   <trkpt lat="55.662180000000006" lon="12.632050000000001">
    <ele>1.77</ele>
   </trkpt>
   <trkpt lat="55.66158333557491" lon="12.632583349656917">
    <ele>1.78</ele>
   </trkpt>
   <trkpt lat="55.660986668837424" lon="12.633116683053247">
    <ele>1.75</ele>
   </trkpt>
   <trkpt lat="55.66039000000001" lon="12.633650000000001">
    <ele>1.6600000000000001</ele>
   </trkpt>
   <trkpt lat="55.660430000000005" lon="12.633610000000001">
    <ele>1.68</ele>
   </trkpt>
   <trkpt lat="55.659705010341035" lon="12.63432339939368">
    <ele>1.6900000000000002</ele>
   </trkpt>
   <trkpt lat="55.65898001654482" lon="12.635036772361627">
    <ele>1.76</ele>
   </trkpt>
   <trkpt lat="55.65825501861161" lon="12.635750118905397">
    <ele>1.68</ele>
   </trkpt>
   <trkpt lat="55.65753001654171" lon="12.636463439026535">
    <ele>1.7300000000000002</ele>
   </trkpt>
   <trkpt lat="55.65680501033534" lon="12.637176732726584">
    <ele>1.87</ele>
   </trkpt>
   <trkpt lat="55.65608" lon="12.63789">
    <ele>1.9100000000000001</ele>
   </trkpt>
   <trkpt lat="55.655950000000004" lon="12.638000000000002">
    <ele>1.9200000000000002</ele>
   </trkpt>
   <trkpt lat="55.655800000000006" lon="12.638060000000001">
    <ele>1.8900000000000001</ele>
   </trkpt>
   <trkpt lat="55.6549975022586" lon="12.638487526272392">
    <ele>1.8200000000000003</ele>
   </trkpt>
   <trkpt lat="55.654195003031255" lon="12.638915035018464">
    <ele>1.7100000000000002</ele>
   </trkpt>
   <trkpt lat="55.653392502318106" lon="12.63934252623943">
    <ele>1.7000000000000002</ele>
   </trkpt>
   <trkpt lat="55.652590000000004" lon="12.63977">
    <ele>1.6900000000000002</ele>
   </trkpt>
   <trkpt lat="55.651990000000005" lon="12.640060000000002">
    <ele>1.62</ele>
   </trkpt>
   <trkpt lat="55.65178" lon="12.64018">
    <ele>1.62</ele>
   </trkpt>
   <trkpt lat="55.65131500010976" lon="12.640390002525272">
    <ele>1.6500000000000001</ele>
   </trkpt>
   <trkpt lat="55.650850000000005" lon="12.640600000000001">
    <ele>1.97</ele>
   </trkpt>
   <trkpt lat="55.65090000000001" lon="12.641520000000002">
    <ele>2.4200000000000004</ele>
   </trkpt>
   <trkpt lat="55.65090000000001" lon="12.64151">
    <ele>2.41</ele>
   </trkpt>
   <trkpt lat="55.650980000000004" lon="12.643070000000002">
    <ele>3.2800000000000002</ele>
   </trkpt>
   <trkpt lat="55.65106" lon="12.643390000000002">
    <ele>2.4899999999999998</ele>
   </trkpt>
   <trkpt lat="55.65108000000001" lon="12.643720000000002">
    <ele>2.1300000000000003</ele>
   </trkpt>
   <trkpt lat="55.65115" lon="12.64381">
    <ele>1.8</ele>
   </trkpt>
   <trkpt lat="55.65126000000001" lon="12.64384">
    <ele>1.56</ele>
   </trkpt>
   <trkpt lat="55.65142" lon="12.643830000000001">
    <ele>0.89</ele>
   </trkpt>
   <trkpt lat="55.65148000000001" lon="12.6438">
    <ele>0.89</ele>
   </trkpt>
   <trkpt lat="55.65155000000001" lon="12.64371">
    <ele>0.67</ele>
   </trkpt>
   <trkpt lat="55.65184000000001" lon="12.644100000000002">
    <ele>0.63</ele>
   </trkpt>
   <trkpt lat="55.65184000000001" lon="12.64409">
    <ele>0.63</ele>
   </trkpt>
   <trkpt lat="55.65202000000001" lon="12.644390000000001">
    <ele>0.63</ele>
   </trkpt>
   <trkpt lat="55.65234" lon="12.645090000000001">
    <ele>0.64</ele>
   </trkpt>
   <trkpt lat="55.65252" lon="12.645420000000001">
    <ele>0.7400000000000001</ele>
   </trkpt>
   <trkpt lat="55.653040000000004" lon="12.646170000000001">
    <ele>0.7000000000000001</ele>
   </trkpt>
   <trkpt lat="55.65326" lon="12.64639">
    <ele>0.63</ele>
   </trkpt>
   <trkpt lat="55.653620000000004" lon="12.646630000000002">
    <ele>0.59</ele>
   </trkpt>
   <trkpt lat="55.65397" lon="12.64681">
    <ele>0.7000000000000001</ele>
   </trkpt>
   <trkpt lat="55.65446000000001" lon="12.64689">
    <ele>0.62</ele>
   </trkpt>
   <trkpt lat="55.65447" lon="12.648290000000001">
    <ele>0.45</ele>
   </trkpt>
   <trkpt lat="55.654030000000006" lon="12.647960000000001">
    <ele>0.6600000000000001</ele>
   </trkpt>
   <trkpt lat="55.65360500059" lon="12.647634996594967">
    <ele>0.8700000000000001</ele>
   </trkpt>
   <trkpt lat="55.653180000000006" lon="12.647310000000001">
    <ele>0.9100000000000001</ele>
   </trkpt>
   <trkpt lat="55.652840000000005" lon="12.64709">
    <ele>0.8600000000000001</ele>
   </trkpt>
   <trkpt lat="55.65223" lon="12.646770000000002">
    <ele>0.8600000000000001</ele>
   </trkpt>
   <trkpt lat="55.651540000000004" lon="12.64652">
    <ele>0.9700000000000001</ele>
   </trkpt>
  </trkseg>
 </trk>
</gpx>
